{"type": "FeatureCollection", "features": [ {"type": "Feature", "properties": {"norad_id": 35111, "name": "FENGYUN 1C DEB", "group": "fengyun-1c-debris", "lat": -62.585833782942466, "lon": -138.7776380712683, "alt_km": 847.8530569206332, "timestamp": "2025-12-07T14:37:05.491957+00:00", "meta": {"OBJECT_NAME": "FENGYUN 1C DEB", "OBJECT_ID": "1999-025DKP", "EPOCH": "2025-12-05T12:06:31.003200", "MEAN_MOTION": 14.10949301, "ECCENTRICITY": 0.00215264, "INCLINATION": 99.4667, "RA_OF_ASC_NODE": 57.7715, "ARG_OF_PERICENTER": 240.7618, "MEAN_ANOMALY": 119.1399, "EPHEMERIS_TYPE": 0, "CLASSIFICATION_TYPE": "U", "NORAD_CAT_ID": 35111, "ELEMENT_SET_NO": 999, "REV_AT_EPOCH": 64042, "BSTAR": 0.00080865112, "MEAN_MOTION_DOT": 1.406e-05, "MEAN_MOTION_DDOT": 0}, "tle": {"line1": "1 35111U 99025DKP 25339.50452550  .00001406  00000+0  80865-3 0  9994", "line2": "2 35111  99.4667  57.7715 0021526 240.7618 119.1399 14.10949301640421"}}, "geometry": {"type": "Point", "coordinates": [-138.7776380712683, -62.585833782942466]}}, {"type": "Feature", "properties": {"norad_id": 35116, "name": "FENGYUN 1C DEB", "group": "fengyun-1c-debris", "lat": -48.32806370893194, "lon": -162.2220173749184, "alt_km": 856.1125676058264, "timestamp": "2025-12-07T14:37:05.491967+00:00", "meta": {"OBJECT_NAME": "FENGYUN 1C DEB", "OBJECT_ID": "1999-025DKU", "EPOCH": "2025-12-06T13:57:31.845312", "MEAN_MOTION": 14.25033527, "ECCENTRICITY": 0.00589098, "INCLINATION": 98.6595, "RA_OF_ASC_NODE": 26.6227, "ARG_OF_PERICENTER": 66.5882, "MEAN_ANOMALY": 294.1477, "EPHEMERIS_TYPE": 0, "CLASSIFICATION_TYPE": "U", "NORAD_CAT_ID": 35116, "ELEMENT_SET_NO": 999, "REV_AT_EPOCH": 59872, "BSTAR": 0.0018081159, "MEAN_MOTION_DOT": 4.271e-05, "MEAN_MOTION_DDOT": 0}, "tle": {"line1": "1 35116U 99025DKU 25340.58161858  .00004271  00000+0  18081-2 0  9990", "line2": "2 35116  98.6595  26.6227 0058909  66.5882 294.1477 14.25033527598728"}}, "geometry": {"type": "Point", "coordinates": [-162.2220173749184, -48.32806370893194]}}, {"type": "Feature", "properties": {"norad_id": 35121, "name": "FENGYUN 1C DEB", "group": "fengyun-1c-debris", "lat": 61.204268992156685, "lon": -170.11580538912122, "alt_km": 794.7899309782842, "timestamp": "2025-12-07T14:37:05.491978+00:00", "meta": {"OBJECT_NAME": "FENGYUN 1C DEB", "OBJECT_ID": "1999-025DKZ", "EPOCH": "2025-11-23T20:23:41.984736", "MEAN_MOTION": 14.04733583, "ECCENTRICITY": 0.0157971, "INCLINATION": 98.3025, "RA_OF_ASC_NODE": 192.694, "ARG_OF_PERICENTER": 150.2058, "MEAN_ANOMALY": 210.8223, "EPHEMERIS_TYPE": 0, "CLASSIFICATION_TYPE": "U", "NORAD_CAT_ID": 35121, "ELEMENT_SET_NO": 999, "REV_AT_EPOCH": 60826, "BSTAR": 0.00039097454, "MEAN_MOTION_DOT": 6.63e-06, "MEAN_MOTION_DDOT": 0}, "tle": {"line1": "1 35121U 99025DKZ 25327.84979149  .00000663  00000+0  39097-3 0  9992", "line2": "2 35121  98.3025 192.6940 0157971 150.2058 210.8223 14.04733583608261"}}, "geometry": {"type": "Point", "coordinates": [-170.11580538912122, 61.204268992156685]}}, {"type": "Feature", "properties": {"norad_id": 35122, "name": "FENGYUN 1C DEB", "group": "fengyun-1c-debris", "lat": 7.926418837877348, "lon": -178.6084827461606, "alt_km": 829.0505118168021, "timestamp": "2025-12-07T14:37:05.491988+00:00", "meta": {"OBJECT_NAME": "FENGYUN 1C DEB", "OBJECT_ID": "1999-025DLA", "EPOCH": "2025-12-06T07:14:30.669504", "MEAN_MOTION": 14.14113631, "ECCENTRICITY": 0.00250368, "INCLINATION": 98.6724, "RA_OF_ASC_NODE": 358.9052, "ARG_OF_PERICENTER": 175.8226, "MEAN_ANOMALY": 184.3161, "EPHEMERIS_TYPE": 0, "CLASSIFICATION_TYPE": "U", "NORAD_CAT_ID": 35122, "ELEMENT_SET_NO": 999, "REV_AT_EPOCH": 63776, "BSTAR": 0.00051441164, "MEAN_MOTION_DOT": 9.4e-06, "MEAN_MOTION_DDOT": 0}, "tle": {"line1": "1 35122U 99025DLA 25340.30174386  .00000940  00000+0  51441-3 0  9994", "line2": "2 35122  98.6724 358.9052 0025036 175.8226 184.3161 14.14113631637768"}}, "geometry": {"type": "Point", "coordinates": [-178.6084827461606, 7.926418837877348]}}, {"type": "Feature", "properties": {"norad_id": 35123, "name": "FENGYUN 1C DEB", "group": "fengyun-1c-debris", "lat": 38.38387608691436, "lon": -8.591010317922313, "alt_km": 785.3693955384142, "timestamp": "2025-12-07T14:37:05.491998+00:00", "meta": {"OBJECT_NAME": "FENGYUN 1C DEB", "OBJECT_ID": "1999-025DLB", "EPOCH": "2025-12-05T23:10:58.256256", "MEAN_MOTION": 14.2418948, "ECCENTRICITY": 0.0049671, "INCLINATION": 99.1223, "RA_OF_ASC_NODE": 162.3921, "ARG_OF_PERICENTER": 95.3297, "MEAN_ANOMALY": 265.355, "EPHEMERIS_TYPE": 0, "CLASSIFICATION_TYPE": "U", "NORAD_CAT_ID": 35123, "ELEMENT_SET_NO": 999, "REV_AT_EPOCH": 60977, "BSTAR": 0.00090983273, "MEAN_MOTION_DOT": 2.077e-05, "MEAN_MOTION_DDOT": 0}, "tle": {"line1": "1 35123U 99025DLB 25339.96595204  .00002077  00000+0  90983-3 0  9998", "line2": "2 35123  99.1223 162.3921 0049671  95.3297 265.3550 14.24189480609774"}}, "geometry": {"type": "Point", "coordinates": [-8.591010317922313, 38.38387608691436]}}, {"type": "Feature", "properties": {"norad_id": 35125, "name": "FENGYUN 1C DEB", "group": "fengyun-1c-debris", "lat": 59.49707832789146, "lon": -21.280593289581102, "alt_km": 788.5716230738126, "timestamp": "2025-12-07T14:37:05.492009+00:00", "meta": {"OBJECT_NAME": "FENGYUN 1C DEB", "OBJECT_ID": "1999-025DLD", "EPOCH": "2025-12-02T18:42:43.848288", "MEAN_MOTION": 14.33013492, "ECCENTRICITY": 0.00523769, "INCLINATION": 98.2163, "RA_OF_ASC_NODE": 348.3348, "ARG_OF_PERICENTER": 324.6836, "MEAN_ANOMALY": 35.0884, "EPHEMERIS_TYPE": 0, "CLASSIFICATION_TYPE": "U", "NORAD_CAT_ID": 35125, "ELEMENT_SET_NO": 999, "REV_AT_EPOCH": 31139, "BSTAR": 0.0017995881, "MEAN_MOTION_DOT": 4.964e-05, "MEAN_MOTION_DDOT": 0}, "tle": {"line1": "1 35125U 99025DLD 25336.77967417  .00004964  00000+0  17996-2 0  9994", "line2": "2 35125  98.2163 348.3348 0052376 324.6836  35.0884 14.33013492311390"}}, "geometry": {"type": "Point", "coordinates": [-21.280593289581102, 59.49707832789146]}}, {"type": "Feature", "properties": {"norad_id": 35130, "name": "FENGYUN 1C DEB", "group": "fengyun-1c-debris", "lat": -41.61700397284651, "lon": -2.765527458767165, "alt_km": 581.0712135242829, "timestamp": "2025-12-07T14:37:05.492019+00:00", "meta": {"OBJECT_NAME": "FENGYUN 1C DEB", "OBJECT_ID": "1999-025DLJ", "EPOCH": "2025-12-03T19:51:08.700192", "MEAN_MOTION": 14.97420249, "ECCENTRICITY": 0.0006062, "INCLINATION": 99.0324, "RA_OF_ASC_NODE": 180.9884, "ARG_OF_PERICENTER": 103.2228, "MEAN_ANOMALY": 256.9666, "EPHEMERIS_TYPE": 0, "CLASSIFICATION_TYPE": "U", "NORAD_CAT_ID": 35130, "ELEMENT_SET_NO": 999, "REV_AT_EPOCH": 64780, "BSTAR": 0.011515, "MEAN_MOTION_DOT": 0.00136513, "MEAN_MOTION_DDOT": 0}, "tle": {"line1": "1 35130U 99025DLJ 25337.82718403  .00136513  00000+0  11515-1 0  9992", "line2": "2 35130  99.0324 180.9884 0006062 103.2228 256.9666 14.97420249647808"}}, "geometry": {"type": "Point", "coordinates": [-2.765527458767165, -41.61700397284651]}}, {"type": "Feature", "properties": {"norad_id": 35135, "name": "FENGYUN 1C DEB", "group": "fengyun-1c-debris", "lat": -24.153184856107806, "lon": -5.566876344936512, "alt_km": 775.0166161587285, "timestamp": "2025-12-07T14:37:05.492030+00:00", "meta": {"OBJECT_NAME": "FENGYUN 1C DEB", "OBJECT_ID": "1999-025DLP", "EPOCH": "2025-12-06T06:39:27.921600", "MEAN_MOTION": 14.22516018, "ECCENTRICITY": 0.00810833, "INCLINATION": 98.5651, "RA_OF_ASC_NODE": 349.2636, "ARG_OF_PERICENTER": 303.4126, "MEAN_ANOMALY": 55.9315, "EPHEMERIS_TYPE": 0, "CLASSIFICATION_TYPE": "U", "NORAD_CAT_ID": 35135, "ELEMENT_SET_NO": 999, "REV_AT_EPOCH": 87732, "BSTAR": 0.0008831478, "MEAN_MOTION_DOT": 1.995e-05, "MEAN_MOTION_DDOT": 0}, "tle": {"line1": "1 35135U 99025DLP 25340.27740650  .00001995  00000+0  88315-3 0  9998", "line2": "2 35135  98.5651 349.2636 0081083 303.4126  55.9315 14.22516018877320"}}, "geometry": {"type": "Point", "coordinates": [-5.566876344936512, -24.153184856107806]}}, {"type": "Feature", "properties": {"norad_id": 35139, "name": "FENGYUN 1C DEB", "group": "fengyun-1c-debris", "lat": 79.92274512067308, "lon": -134.82168993050402, "alt_km": 853.3271224992168, "timestamp": "2025-12-07T14:37:05.492040+00:00", "meta": {"OBJECT_NAME": "FENGYUN 1C DEB", "OBJECT_ID": "1999-025DLT", "EPOCH": "2025-11-29T06:46:18.583392", "MEAN_MOTION": 14.21054019, "ECCENTRICITY": 0.00685814, "INCLINATION": 98.5841, "RA_OF_ASC_NODE": 338.8823, "ARG_OF_PERICENTER": 336.9878, "MEAN_ANOMALY": 22.8231, "EPHEMERIS_TYPE": 0, "CLASSIFICATION_TYPE": "U", "NORAD_CAT_ID": 35139, "ELEMENT_SET_NO": 999, "REV_AT_EPOCH": 63962, "BSTAR": 0.00042081079, "MEAN_MOTION_DOT": 8.92e-06, "MEAN_MOTION_DDOT": 0}, "tle": {"line1": "1 35139U 99025DLT 25333.28215953  .00000892  00000+0  42081-3 0  9993", "line2": "2 35139  98.5841 338.8823 0068581 336.9878  22.8231 14.21054019639626"}}, "geometry": {"type": "Point", "coordinates": [-134.82168993050402, 79.92274512067308]}}, {"type": "Feature", "properties": {"norad_id": 35140, "name": "FENGYUN 1C DEB", "group": "fengyun-1c-debris", "lat": 2.894471614523825, "lon": 143.62920777203877, "alt_km": 1025.0350404115488, "timestamp": "2025-12-07T14:37:05.492050+00:00", "meta": {"OBJECT_NAME": "FENGYUN 1C DEB", "OBJECT_ID": "1999-025DLU", "EPOCH": "2025-12-06T15:48:58.103712", "MEAN_MOTION": 14.21329888, "ECCENTRICITY": 0.02909936, "INCLINATION": 98.4456, "RA_OF_ASC_NODE": 322.2885, "ARG_OF_PERICENTER": 344.4114, "MEAN_ANOMALY": 14.8243, "EPHEMERIS_TYPE": 0, "CLASSIFICATION_TYPE": "U", "NORAD_CAT_ID": 35140, "ELEMENT_SET_NO": 999, "REV_AT_EPOCH": 87192, "BSTAR": 0.00044969115, "MEAN_MOTION_DOT": 1.458e-05, "MEAN_MOTION_DDOT": 0}, "tle": {"line1": "1 35140U 99025DLU 25340.65900583  .00001458  00000+0  44969-3 0  9990", "line2": "2 35140  98.4456 322.2885 0290993 344.4114  14.8243 14.21329888871929"}}, "geometry": {"type": "Point", "coordinates": [143.62920777203877, 2.894471614523825]}}]}